NORAD_CAT_ID,OBJECT_NAME,OBJECT_TYPE,EPOCH,MEAN_MOTION,ECCENTRICITY,INCLINATION,RA_OF_ASC_NODE,ARG_OF_PERICENTER,MEAN_ANOMALY,BSTAR,MEAN_MOTION_DOT,MEAN_MOTION_DDOT,TLE_LINE0,TLE_LINE1,TLE_LINE2,SEMIMAJOR_AXIS,PERIOD,APOGEE,PERIGEE,DECAYED
52668.0,STARLINK-4067,PAYLOAD,2023-12-13 22:12:33,15.08843289,0.0001482,53.2163,220.7201,87.1643,272.9519,2.9962e-05,1.89e-06,0.0,0 STARLINK-4067,1 52668U 22053N   23347.92538233  .00000189  00000-0  29962-4 0  9993,2 52668  53.2163 220.7201 0001482  87.1643 272.9519 15.08843289 87746,6917.87,95.437,540.761,538.71,0.0
52668.0,STARLINK-4067,PAYLOAD,2023-12-14 22:03:19,15.08841784,0.0001466,53.2161,216.2549,92.0589,268.0571,4.1823e-05,3.78e-06,0.0,0 STARLINK-4067,1 52668U 22053N   23348.91898071  .00000378  00000-0  41823-4 0  9992,2 52668  53.2161 216.2549 0001466  92.0589 268.0571 15.08841784 87893,6917.875,95.437,540.754,538.726,0.0
52668.0,STARLINK-4067,PAYLOAD,2023-12-15 20:18:44,15.08833656,0.0001403,53.2159,212.0888,102.0943,258.0206,-2.0366e-06,-3.2e-06,0.0,0 STARLINK-4067,1 52668U 22053N   23349.84634841 -.00000320  00000-0 -20366-5 0  9997,2 52668  53.2159 212.0888 0001403 102.0943 258.0206 15.08833656 88037,6917.9,95.438,540.735,538.794,0.0
52668.0,STARLINK-4067,PAYLOAD,2023-12-16 20:09:31,15.08844609,0.0001342,53.2153,207.6285,107.5095,252.6044,-2.4181e-05,-6.73e-06,0.0,0 STARLINK-4067,1 52668U 22053N   23350.83994556 -.00000673  00000-0 -24181-4 0  9999,2 52668  53.2153 207.6285 0001342 107.5095 252.6044 15.08844609 88188,6917.866,95.437,540.66,538.803,0.0
52668.0,STARLINK-4067,PAYLOAD,2023-12-16 21:44:55,15.08808174,0.0001644,53.2156,207.3347,109.7189,250.3981,0.00045776,6.998e-05,0.0,0 STARLINK-4067,1 52668U 22053N   23350.90619310  .00006998  00000-0  45776-3 0  9995,2 52668  53.2156 207.3347 0001644 109.7189 250.3981 15.08808174 88193,6917.978,95.44,540.98,538.705,0.0
52668.0,STARLINK-4067,PAYLOAD,2023-12-17 20:00:18,15.08836497,0.000129,53.2154,203.1722,103.6547,256.4589,8.7343e-05,1.102e-05,0.0,0 STARLINK-4067,1 52668U 22053N   23351.83355048  .00001102  00000-0  87343-4 0  9992,2 52668  53.2154 203.1722 0001290 103.6547 256.4589 15.08836497 88336,6917.891,95.438,540.649,538.864,0.0
52668.0,STARLINK-4067,PAYLOAD,2023-12-17 21:35:41,15.0884216,0.0001274,53.2159,202.8745,86.1359,273.9778,9.9719e-05,1.3e-05,0.0,0 STARLINK-4067,1 52668U 22053N   23351.89978822  .00001300  00000-0  99719-4 0  9999,2 52668  53.2159 202.8745 0001274  86.1359 273.9778 15.08842160 88349,6917.874,95.437,540.62,538.857,0.0
52668.0,STARLINK-4067,PAYLOAD,2023-12-18 21:26:29,15.08837563,0.0001418,53.2161,198.4168,81.1127,279.0026,5.2445e-05,5.47e-06,0.0,0 STARLINK-4067,1 52668U 22053N   23352.89339474  .00000547  00000-0  52445-4 0  9991,2 52668  53.2161 198.4168 0001418  81.1127 279.0026 15.08837563 88499,6917.888,95.438,540.734,538.772,0.0
52668.0,STARLINK-4067,PAYLOAD,2023-12-19 21:17:16,15.08841675,0.0001583,53.2161,193.9578,72.898,287.2185,7.3163e-05,8.77e-06,0.0,0 STARLINK-4067,1 52668U 22053N   23353.88699336  .00000877  00000-0  73163-4 0  9993,2 52668  53.2161 193.9578 0001583  72.8980 287.2185 15.08841675 88644,6917.875,95.437,540.835,538.645,0.0
52668.0,STARLINK-4067,PAYLOAD,2023-12-20 19:32:40,15.08841942,0.0001425,53.2153,189.797,84.7615,275.354,8.8823e-05,1.126e-05,0.0,0 STARLINK-4067,1 52668U 22053N   23354.81435236  .00001126  00000-0  88823-4 0  9991,2 52668  53.2153 189.7970 0001425  84.7615 275.3540 15.08841942 88781,6917.874,95.437,540.725,538.754,0.0
52668.0,STARLINK-4067,PAYLOAD,2023-12-22 19:14:13,15.08843889,0.0001353,53.2161,180.868,105.673,254.4411,6.954e-05,8.19e-06,0.0,0 STARLINK-4067,1 52668U 22053N   23356.80154792  .00000819  00000-0  69540-4 0  9990,2 52668  53.2161 180.8680 0001353 105.6730 254.4411 15.08843889 89082,6917.869,95.437,540.669,538.798,0.0
52668.0,STARLINK-4067,PAYLOAD,2023-12-23 12:43:28,15.08840292,0.0001414,53.2169,177.6008,104.9698,255.1451,5.1649e-05,5.34e-06,0.0,0 STARLINK-4067,1 52668U 22053N   23357.53019106  .00000534  00000-0  51649-4 0  9995,2 52668  53.2169 177.6008 0001414 104.9698 255.1451 15.08840292 89190,6917.879,95.438,540.723,538.766,0.0
52668.0,STARLINK-4067,PAYLOAD,2023-12-23 19:05:00,15.08840715,0.0001318,53.2161,176.4094,106.1996,253.9141,5.2658e-05,5.5e-06,0.0,0 STARLINK-4067,1 52668U 22053N   23357.79514998  .00000550  00000-0  52658-4 0  9991,2 52668  53.2161 176.4094 0001318 106.1996 253.9141 15.08840715 89239,6917.878,95.438,540.655,538.831,0.0
52668.0,STARLINK-4067,PAYLOAD,2023-12-24 12:34:15,15.08838308,0.0001322,53.2162,173.1383,105.729,254.3848,3.6266e-05,2.89e-06,0.0,0 STARLINK-4067,1 52668U 22053N   23358.52379234  .00000289  00000-0  36266-4 0  9991,2 52668  53.2162 173.1383 0001322 105.7290 254.3848 15.08838308 89348,6917.886,95.438,540.665,538.836,0.0
52668.0,STARLINK-4067,PAYLOAD,2023-12-24 17:20:24,15.08840128,0.0001303,53.2161,172.2465,100.9549,259.159,4.6173e-05,4.47e-06,0.0,0 STARLINK-4067,1 52668U 22053N   23358.72251089  .00000447  00000-0  46173-4 0  9994,2 52668  53.2161 172.2465 0001303 100.9549 259.1590 15.08840128 89374,6917.88,95.438,540.646,538.844,0.0
52668.0,STARLINK-4067,PAYLOAD,2023-12-25 18:46:35,15.08837973,0.0001244,53.216,167.4899,92.9609,267.1525,5.4921e-05,5.86e-06,0.0,0 STARLINK-4067,1 52668U 22053N   23359.78235379  .00000586  00000-0  54921-4 0  9999,2 52668  53.2160 167.4899 0001244  92.9609 267.1525 15.08837973 89530,6917.887,95.438,540.612,538.891,0.0
52668.0,STARLINK-4067,PAYLOAD,2023-12-25 20:21:58,15.08840258,0.0001298,53.2162,167.1914,100.7075,259.4063,7.2257e-05,8.62e-06,0.0,0 STARLINK-4067,1 52668U 22053N   23359.84859139  .00000862  00000-0  72257-4 0  9991,2 52668  53.2162 167.1914 0001298 100.7075 259.4063 15.08840258 89543,6917.88,95.438,540.643,538.847,0.0
52668.0,STARLINK-4067,PAYLOAD,2023-12-26 20:12:45,15.08839181,0.0001254,53.2167,162.7298,98.5193,261.5941,2.3071e-06,-2.51e-06,0.0,0 STARLINK-4067,1 52668U 22053N   23360.84219596 -.00000251  00000-0  23071-5 0  9994,2 52668  53.2167 162.7298 0001254  98.5193 261.5941 15.08839181 89699,6917.883,95.438,540.615,538.88,0.0
52668.0,STARLINK-4067,PAYLOAD,2023-12-27 16:52:46,15.08837976,0.0001305,53.2164,158.8689,80.9556,279.1584,4.4867e-05,4.26e-06,0.0,0 STARLINK-4067,1 52668U 22053N   23361.70331960  .00000426  00000-0  44867-4 0  9998,2 52668  53.2164 158.8689 0001305  80.9556 279.1584 15.08837976 89824,6917.887,95.438,540.654,538.849,0.0
52668.0,STARLINK-4067,PAYLOAD,2023-12-28 16:43:33,15.08842898,0.0001401,53.2166,154.4082,77.8259,282.289,0.00010012,1.306e-05,0.0,0 STARLINK-4067,1 52668U 22053N   23362.69691530  .00001306  00000-0  10012-3 0  9991,2 52668  53.2166 154.4082 0001401  77.8259 282.2890 15.08842898 89977,6917.872,95.437,540.706,538.767,0.0
52668.0,STARLINK-4067,PAYLOAD,2023-12-28 19:54:19,15.08844644,0.0001342,53.2166,153.8109,85.6757,274.4388,0.00010843,1.438e-05,0.0,0 STARLINK-4067,1 52668U 22053N   23362.82939257  .00001438  00000-0  10843-3 0  9995,2 52668  53.2166 153.8109 0001342  85.6757 274.4388 15.08844644 89992,6917.866,95.437,540.66,538.803,0.0
52668.0,STARLINK-4067,PAYLOAD,2023-12-29 13:23:34,15.08840879,0.0001889,53.2163,150.5387,135.6683,224.4461,2.7948e-05,1.57e-06,0.0,0 STARLINK-4067,1 52668U 22053N   23363.55803515  .00000157  00000-0  27948-4 0  9995,2 52668  53.2163 150.5387 0001889 135.6683 224.4461 15.08840879 90109,6917.878,95.437,541.049,538.436,0.0
52668.0,STARLINK-4067,PAYLOAD,2023-12-29 16:34:20,15.08841886,0.0001538,53.2172,149.9432,121.3239,238.7904,3.313e-05,2.39e-06,0.0,0 STARLINK-4067,1 52668U 22053N   23363.69051537  .00000239  00000-0  33130-4 0  9990,2 52668  53.2172 149.9432 0001538 121.3239 238.7904 15.08841886 90123,6917.875,95.437,540.804,538.676,0.0
52668.0,STARLINK-4067,PAYLOAD,2023-12-30 14:49:46,15.08822755,0.0001606,53.2164,145.7779,125.2469,234.8673,-8.1304e-05,-1.581e-05,0.0,0 STARLINK-4067,1 52668U 22053N   23364.61789655 -.00001581  00000-0 -81304-4 0  9991,2 52668  53.2164 145.7779 0001606 125.2469 234.8673 15.08822755 90265,6917.933,95.439,540.909,538.687,0.0
52668.0,STARLINK-4067,PAYLOAD,2023-12-30 19:35:56,15.08818968,0.0001114,53.2158,144.8921,92.8392,267.2728,-0.00019681,-3.417e-05,0.0,0 STARLINK-4067,1 52668U 22053N   23364.81662643 -.00003417  00000-0 -19681-3 0  9998,2 52668  53.2158 144.8921 0001114  92.8392 267.2728 15.08818968 90290,6917.945,95.439,540.58,539.039,0.0
52668.0,STARLINK-4067,PAYLOAD,2023-12-31 09:54:23,15.0883578,0.0001479,53.216,142.2156,85.1987,274.9174,6.4164e-05,7.33e-06,0.0,0 STARLINK-4067,1 52668U 22053N   23365.41277239  .00000733  00000-0  64164-4 0  9991,2 52668  53.2160 142.2156 0001479  85.1987 274.9174 15.08835780 90385,6917.893,95.438,540.781,538.735,0.0
52668.0,STARLINK-4067,PAYLOAD,2023-12-31 16:15:55,15.08843626,0.0001296,53.2162,141.0234,90.002,270.1121,0.00010129,1.325e-05,0.0,0 STARLINK-4067,1 52668U 22053N   23365.67772624  .00001325  00000-0  10129-3 0  9996,2 52668  53.2162 141.0234 0001296  90.0020 270.1121 15.08843626 90424,6917.869,95.437,540.631,538.838,0.0
52668.0,STARLINK-4067,PAYLOAD,2024-01-01 14:31:19,15.08838423,0.00013,53.2163,136.8608,84.5881,275.526,0.00033703,5.08e-05,0.0,0 STARLINK-4067,1 52668U 22053N   24001.60508329  .00005080  00000-0  33703-3 0  9991,2 52668  53.2163 136.8608 0001300  84.5881 275.5260 15.08838423 90568,6917.885,95.438,540.65,538.851,0.0
52668.0,STARLINK-4067,PAYLOAD,2024-01-01 17:42:05,15.08824901,0.0001426,53.2163,136.2669,79.7395,280.3758,0.00061607,9.526e-05,0.0,0 STARLINK-4067,1 52668U 22053N   24001.73756381  .00009526  00000-0  61607-3 0  9991,2 52668  53.2163 136.2669 0001426  79.7395 280.3758 15.08824901 90588,6917.927,95.439,540.778,538.805,0.0
52668.0,STARLINK-4067,PAYLOAD,2024-01-02 14:22:06,15.08846422,0.0001369,53.2164,132.4013,78.1407,281.9739,-2.2455e-05,-6.45e-06,0.0,0 STARLINK-4067,1 52668U 22053N   24002.59868914 -.00000645  00000-0 -22455-4 0  9996,2 52668  53.2164 132.4013 0001369  78.1407 281.9739 15.08846422 90716,6917.861,95.437,540.673,538.779,0.0
